[{"OBJECT_NAME":"STELLA","OBJECT_ID":"1993-061B","EPOCH":"2026-03-09T22:50:14.153280","MEAN_MOTION":14.2746756,"ECCENTRICITY":0.00067535,"INCLINATION":98.784,"RA_OF_ASC_NODE":132.7988,"ARG_OF_PERICENTER":156.9855,"MEAN_ANOMALY":327.7404,"EPHEMERIS_TYPE":0,"CLASSIFICATION_TYPE":"U","NORAD_CAT_ID":22824,"ELEMENT_SET_NO":999,"REV_AT_EPOCH":69061,"BSTAR":7.617075e-6,"MEAN_MOTION_DOT":-2.6e-7,"MEAN_MOTION_DDOT":0},{"OBJECT_NAME":"DMSP 5D-2 F13 DEB","OBJECT_ID":"1995-015W","EPOCH":"2026-03-09T12:07:26.723424","MEAN_MOTION":14.26652266,"ECCENTRICITY":0.00024466,"INCLINATION":98.7441,"RA_OF_ASC_NODE":93.64,"ARG_OF_PERICENTER":53.9557,"MEAN_ANOMALY":306.1849,"EPHEMERIS_TYPE":0,"CLASSIFICATION_TYPE":"U","NORAD_CAT_ID":40409,"ELEMENT_SET_NO":999,"REV_AT_EPOCH":57154,"BSTAR":0.0013103627,"MEAN_MOTION_DOT":3.123e-5,"MEAN_MOTION_DDOT":0}]
